KINEIS-1B               
1 60079U 24114A   26186.56877803  .00000945  00000+0  12986-3 0  9997
2 60079  97.9826 210.6665 0003571  58.9146 301.2417 14.80656509110127
KINEIS-1C               
1 60081U 24114C   26186.60242175  .00000894  00000+0  12321-3 0  9999
2 60081  97.9846 210.5531 0002460 106.6541 253.4941 14.80658621110104
KINEIS-1D               
1 60082U 24114D   26186.61469041  .00000709  00000+0  10953-3 0  9998
2 60082  97.9882 206.5484 0002762 112.8831 247.2670 14.76353964109849
KINEIS-1E               
1 60083U 24114E   26186.62038753  .00001284  00000+0  17378-3 0  9999
2 60083  97.8942 209.7464 0003739 129.2718 230.8826 14.80681717110118
KINEIS-1A               
1 60084U 24114F   26186.58618117  .00001007  00000+0  13775-3 0  9993
2 60084  97.8916 209.8098 0005673  85.2053 274.9808 14.80671509110113
KINEIS-3C               
1 61220U 24172A   26186.21833231  .00002755  00000+0  44314-3 0  9990
2 61220  98.0435 275.9263 0002819  97.0929 263.0599 14.72349594 95727
KINEIS-3D               
1 61221U 24172B   26186.21159883  .00003093  00000+0  49658-3 0  9997
2 61221  98.0430 275.9300 0002662  97.1211 263.0299 14.72351148 96003
KINEIS-3E               
1 61222U 24172C   26186.19453616  .00003013  00000+0  48430-3 0  9995
2 61222  98.0425 275.8951 0001923  96.1126 264.0300 14.72318097 96002
KINEIS-3A               
1 61223U 24172D   26186.24587261  .00003000  00000+0  48255-3 0  9997
2 61223  98.0420 276.0445 0002808  62.5466 297.6027 14.72288076 95433
KINEIS-3B               
1 61224U 24172E   26186.22841681  .00002863  00000+0  46021-3 0  9990
2 61224  98.0414 276.0505 0002387  50.4628 309.6790 14.72361884 96006
KINEIS-5C               
1 62081U 24219A   26186.61352235  .00000722  00000+0  12195-3 0  9996
2 62081  97.9058 344.9554 0003357 204.5608 155.5440 14.72305808 86460
KINEIS-5D               
1 62082U 24219B   26186.57323566  .00001068  00000+0  17596-3 0  9991
2 62082  97.9170 344.9683 0004472 197.7313 162.3740 14.72481191 86463
KINEIS-5E               
1 62083U 24219C   26186.65776307  .00000690  00000+0  11688-3 0  9992
2 62083  97.9014 345.0980 0005978 194.3506 165.7533 14.72291040 86483
KINEIS-5B               
1 62085U 24219E   26186.59303517  .00001235  00000+0  17678-3 0  9997
2 62085  98.0081 350.3220 0001791 165.0884 195.0380 14.78371147 86726
KINEIS-2C               
1 62929U 25028B   26186.38533808  .00002243  00000+0  35375-3 0  9992
2 62929  98.1235 240.7984 0003421 187.5986 172.5171 14.73411410 75299
