{"fetched_at":"2026-07-06T08:47:08.463Z","source":"https://celestrak.org/NORAD/elements/gp.php?NAME=KINEIS&FORMAT=JSON","constellation":"kineis","records":[{"OBJECT_NAME":"KINEIS-1B","OBJECT_ID":"2024-114A","EPOCH":"2026-07-05T13:39:02.421792","CLASSIFICATION_TYPE":"U","MEAN_MOTION":14.80656509,"ECCENTRICITY":0.00035718,"INCLINATION":97.9826,"RA_OF_ASC_NODE":210.6665,"ARG_OF_PERICENTER":58.9146,"MEAN_ANOMALY":301.2417,"EPHEMERIS_TYPE":0,"NORAD_CAT_ID":60079,"ELEMENT_SET_NO":999,"REV_AT_EPOCH":11012,"BSTAR":0.0001298622,"MEAN_MOTION_DOT":0.00000945,"MEAN_MOTION_DDOT":0},{"OBJECT_NAME":"KINEIS-1C","OBJECT_ID":"2024-114C","EPOCH":"2026-07-05T14:27:29.239200","CLASSIFICATION_TYPE":"U","MEAN_MOTION":14.80658621,"ECCENTRICITY":0.00024604,"INCLINATION":97.9846,"RA_OF_ASC_NODE":210.5531,"ARG_OF_PERICENTER":106.6541,"MEAN_ANOMALY":253.4941,"EPHEMERIS_TYPE":0,"NORAD_CAT_ID":60081,"ELEMENT_SET_NO":999,"REV_AT_EPOCH":11010,"BSTAR":0.00012320591,"MEAN_MOTION_DOT":0.00000894,"MEAN_MOTION_DDOT":0},{"OBJECT_NAME":"KINEIS-1D","OBJECT_ID":"2024-114D","EPOCH":"2026-07-05T14:45:09.251424","CLASSIFICATION_TYPE":"U","MEAN_MOTION":14.76353964,"ECCENTRICITY":0.00027627,"INCLINATION":97.9882,"RA_OF_ASC_NODE":206.5484,"ARG_OF_PERICENTER":112.8831,"MEAN_ANOMALY":247.267,"EPHEMERIS_TYPE":0,"NORAD_CAT_ID":60082,"ELEMENT_SET_NO":999,"REV_AT_EPOCH":10984,"BSTAR":0.00010952898,"MEAN_MOTION_DOT":0.00000709,"MEAN_MOTION_DDOT":0},{"OBJECT_NAME":"KINEIS-1E","OBJECT_ID":"2024-114E","EPOCH":"2026-07-05T14:53:21.482592","CLASSIFICATION_TYPE":"U","MEAN_MOTION":14.80681717,"ECCENTRICITY":0.00037398,"INCLINATION":97.8942,"RA_OF_ASC_NODE":209.7464,"ARG_OF_PERICENTER":129.2718,"MEAN_ANOMALY":230.8826,"EPHEMERIS_TYPE":0,"NORAD_CAT_ID":60083,"ELEMENT_SET_NO":999,"REV_AT_EPOCH":11011,"BSTAR":0.000173785,"MEAN_MOTION_DOT":0.00001284,"MEAN_MOTION_DDOT":0},{"OBJECT_NAME":"KINEIS-1A","OBJECT_ID":"2024-114F","EPOCH":"2026-07-05T14:04:06.053088","CLASSIFICATION_TYPE":"U","MEAN_MOTION":14.80671509,"ECCENTRICITY":0.00056734,"INCLINATION":97.8916,"RA_OF_ASC_NODE":209.8098,"ARG_OF_PERICENTER":85.2053,"MEAN_ANOMALY":274.9808,"EPHEMERIS_TYPE":0,"NORAD_CAT_ID":60084,"ELEMENT_SET_NO":999,"REV_AT_EPOCH":11011,"BSTAR":0.00013774866,"MEAN_MOTION_DOT":0.00001007,"MEAN_MOTION_DDOT":0},{"OBJECT_NAME":"KINEIS-3C","OBJECT_ID":"2024-172A","EPOCH":"2026-07-05T05:14:23.910720","CLASSIFICATION_TYPE":"U","MEAN_MOTION":14.72349594,"ECCENTRICITY":0.0002819,"INCLINATION":98.0435,"RA_OF_ASC_NODE":275.9263,"ARG_OF_PERICENTER":97.0929,"MEAN_ANOMALY":263.0599,"EPHEMERIS_TYPE":0,"NORAD_CAT_ID":61220,"ELEMENT_SET_NO":999,"REV_AT_EPOCH":9572,"BSTAR":0.00044314,"MEAN_MOTION_DOT":0.00002755,"MEAN_MOTION_DDOT":0},{"OBJECT_NAME":"KINEIS-3D","OBJECT_ID":"2024-172B","EPOCH":"2026-07-05T05:04:42.138048","CLASSIFICATION_TYPE":"U","MEAN_MOTION":14.72351148,"ECCENTRICITY":0.0002662,"INCLINATION":98.043,"RA_OF_ASC_NODE":275.93,"ARG_OF_PERICENTER":97.1211,"MEAN_ANOMALY":263.0299,"EPHEMERIS_TYPE":0,"NORAD_CAT_ID":61221,"ELEMENT_SET_NO":999,"REV_AT_EPOCH":9600,"BSTAR":0.00049658,"MEAN_MOTION_DOT":0.00003093,"MEAN_MOTION_DDOT":0},{"OBJECT_NAME":"KINEIS-3E","OBJECT_ID":"2024-172C","EPOCH":"2026-07-05T04:40:07.924224","CLASSIFICATION_TYPE":"U","MEAN_MOTION":14.72318097,"ECCENTRICITY":0.0001923,"INCLINATION":98.0425,"RA_OF_ASC_NODE":275.8951,"ARG_OF_PERICENTER":96.1126,"MEAN_ANOMALY":264.03,"EPHEMERIS_TYPE":0,"NORAD_CAT_ID":61222,"ELEMENT_SET_NO":999,"REV_AT_EPOCH":9600,"BSTAR":0.0004843,"MEAN_MOTION_DOT":0.00003013,"MEAN_MOTION_DDOT":0},{"OBJECT_NAME":"KINEIS-3A","OBJECT_ID":"2024-172D","EPOCH":"2026-07-05T05:54:03.392640","CLASSIFICATION_TYPE":"U","MEAN_MOTION":14.72288076,"ECCENTRICITY":0.0002808,"INCLINATION":98.042,"RA_OF_ASC_NODE":276.0445,"ARG_OF_PERICENTER":62.5466,"MEAN_ANOMALY":297.6027,"EPHEMERIS_TYPE":0,"NORAD_CAT_ID":61223,"ELEMENT_SET_NO":999,"REV_AT_EPOCH":9543,"BSTAR":0.00048255,"MEAN_MOTION_DOT":0.00003,"MEAN_MOTION_DDOT":0},{"OBJECT_NAME":"KINEIS-3B","OBJECT_ID":"2024-172E","EPOCH":"2026-07-05T05:28:55.212384","CLASSIFICATION_TYPE":"U","MEAN_MOTION":14.72361884,"ECCENTRICITY":0.0002387,"INCLINATION":98.0414,"RA_OF_ASC_NODE":276.0505,"ARG_OF_PERICENTER":50.4628,"MEAN_ANOMALY":309.679,"EPHEMERIS_TYPE":0,"NORAD_CAT_ID":61224,"ELEMENT_SET_NO":999,"REV_AT_EPOCH":9600,"BSTAR":0.00046021,"MEAN_MOTION_DOT":0.00002863,"MEAN_MOTION_DDOT":0},{"OBJECT_NAME":"KINEIS-5C","OBJECT_ID":"2024-219A","EPOCH":"2026-07-05T14:43:28.331040","CLASSIFICATION_TYPE":"U","MEAN_MOTION":14.72305808,"ECCENTRICITY":0.00033574,"INCLINATION":97.9058,"RA_OF_ASC_NODE":344.9554,"ARG_OF_PERICENTER":204.5608,"MEAN_ANOMALY":155.544,"EPHEMERIS_TYPE":0,"NORAD_CAT_ID":62081,"ELEMENT_SET_NO":999,"REV_AT_EPOCH":8646,"BSTAR":0.00012195076,"MEAN_MOTION_DOT":0.00000722,"MEAN_MOTION_DDOT":0},{"OBJECT_NAME":"KINEIS-5D","OBJECT_ID":"2024-219B","EPOCH":"2026-07-05T13:45:27.561024","CLASSIFICATION_TYPE":"U","MEAN_MOTION":14.72481191,"ECCENTRICITY":0.00044721,"INCLINATION":97.917,"RA_OF_ASC_NODE":344.9683,"ARG_OF_PERICENTER":197.7313,"MEAN_ANOMALY":162.374,"EPHEMERIS_TYPE":0,"NORAD_CAT_ID":62082,"ELEMENT_SET_NO":999,"REV_AT_EPOCH":8646,"BSTAR":0.00017595578,"MEAN_MOTION_DOT":0.00001068,"MEAN_MOTION_DDOT":0},{"OBJECT_NAME":"KINEIS-5E","OBJECT_ID":"2024-219C","EPOCH":"2026-07-05T15:47:10.729248","CLASSIFICATION_TYPE":"U","MEAN_MOTION":14.7229104,"ECCENTRICITY":0.00059787,"INCLINATION":97.9014,"RA_OF_ASC_NODE":345.098,"ARG_OF_PERICENTER":194.3506,"MEAN_ANOMALY":165.7533,"EPHEMERIS_TYPE":0,"NORAD_CAT_ID":62083,"ELEMENT_SET_NO":999,"REV_AT_EPOCH":8648,"BSTAR":0.00011687627,"MEAN_MOTION_DOT":0.0000069,"MEAN_MOTION_DDOT":0},{"OBJECT_NAME":"KINEIS-5B","OBJECT_ID":"2024-219E","EPOCH":"2026-07-05T14:13:58.238688","CLASSIFICATION_TYPE":"U","MEAN_MOTION":14.78371147,"ECCENTRICITY":0.00017915,"INCLINATION":98.0081,"RA_OF_ASC_NODE":350.322,"ARG_OF_PERICENTER":165.0884,"MEAN_ANOMALY":195.038,"EPHEMERIS_TYPE":0,"NORAD_CAT_ID":62085,"ELEMENT_SET_NO":999,"REV_AT_EPOCH":8672,"BSTAR":0.00017677675,"MEAN_MOTION_DOT":0.00001235,"MEAN_MOTION_DDOT":0},{"OBJECT_NAME":"KINEIS-2C","OBJECT_ID":"2025-028B","EPOCH":"2026-07-05T09:14:53.210112","CLASSIFICATION_TYPE":"U","MEAN_MOTION":14.7341141,"ECCENTRICITY":0.0003421,"INCLINATION":98.1235,"RA_OF_ASC_NODE":240.7984,"ARG_OF_PERICENTER":187.5986,"MEAN_ANOMALY":172.5171,"EPHEMERIS_TYPE":0,"NORAD_CAT_ID":62929,"ELEMENT_SET_NO":999,"REV_AT_EPOCH":7529,"BSTAR":0.00035375,"MEAN_MOTION_DOT":0.00002243,"MEAN_MOTION_DDOT":0}]}
